IRIDIUM 36 [-]          
1 24967U 97056C   24088.19657599  .00001078  00000+0  35951-3 0  9999
2 24967  86.4027   0.2854 0002253  81.2797 278.8655 14.36700592388166
IRIDIUM 39 [-]          
1 25042U 97069D   24087.94327883  .00001492  00000+0  39758-3 0  9999
2 25042  86.3938  42.2998 0018408   3.2046 356.9272 14.47791851384367
IRIDIUM 38 [-]          
1 25043U 97069E   24087.95090686  .00001114  00000+0  36841-3 0  9990
2 25043  86.3937  60.7828 0003938 102.9944 257.1694 14.37137020382101
IRIDIUM 42 [-]          
1 25077U 97077A   24088.18666452  .00001122  00000+0  38381-3 0  9992
2 25077  86.3931  66.3111 0002745  98.1510 261.9997 14.35448776377192
IRIDIUM 44 [-]          
1 25078U 97077B   24087.94552507  .00001170  00000+0  37105-3 0  9997
2 25078  86.3959  49.5283 0003975  72.7117 287.4516 14.39274379379498
IRIDIUM 45 [-]          
1 25104U 97082A   24087.94487603  .00026119  00000+0  15396-2 0  9994
2 25104  86.3700 260.3161 0166515 174.0854 186.2401 15.00435321384663
IRIDIUM 24 [-]          
1 25105U 97082B   24088.20317207  .00001098  00000+0  33515-3 0  9990
2 25105  86.3852 269.1609 0013475 107.6254 252.6419 14.41041285379216
IRIDIUM 51 [-]          
1 25262U 98018A   24087.92281928  .00024700  00000+0  12092-2 0  9993
2 25262  86.3865 270.3838 0153745 121.4402 240.1972 15.08156126379150
